{
  "type": "FeatureCollection",
  "features": [
    {
      "type": "Feature",
      "properties": {
        "norad_id": 66580,
        "name": "STARLINK-35872",
        "group": "last-30-days",
        "lat": 40.90960527950845,
        "lon": -65.39241011130233,
        "alt_km": 332.6633901679461,
        "timestamp": "2025-12-02T07:10:07.868263+00:00",
        "meta_object_name": "STARLINK-35872",
        "meta_object_id": "2025-268Z",
        "meta_epoch": "2025-12-01T20:00:01.999008",
        "meta_mean_motion": 15.79182968,
        "meta_eccentricity": 0.0001806,
        "meta_inclination": 42.9969,
        "meta_ra_of_asc_node": 185.8816,
        "meta_arg_of_pericenter": 266.6186,
        "meta_mean_anomaly": 72.246,
        "meta_ephemeris_type": 0,
        "meta_classification_type": "U",
        "meta_norad_cat_id": 66580,
        "meta_element_set_no": 999,
        "meta_rev_at_epoch": 291,
        "meta_bstar": -0.01084,
        "meta_mean_motion_dot": -0.0176504,
        "meta_mean_motion_ddot": 0,
        "tle_line1": "1 66580U 25268Z   25335.83335647 -.01765040  00000+0 -10840-1 0  9993",
        "tle_line2": "2 66580  42.9969 185.8816 0001806 266.6186  72.2460 15.79182968  2912"
      },
      "geometry": {
        "type": "Point",
        "coordinates": [
          -65.39241011130233,
          40.90960527950845
        ]
      }
    },
    {
      "type": "Feature",
      "properties": {
        "norad_id": 66581,
        "name": "STARLINK-35744",
        "group": "last-30-days",
        "lat": 40.395466319376105,
        "lon": -62.923030125142795,
        "alt_km": 332.7001323210552,
        "timestamp": "2025-12-02T07:10:07.868286+00:00",
        "meta_object_name": "STARLINK-35744",
        "meta_object_id": "2025-268AA",
        "meta_epoch": "2025-12-01T20:00:01.999008",
        "meta_mean_motion": 15.79184662,
        "meta_eccentricity": 0.0001766,
        "meta_inclination": 42.997,
        "meta_ra_of_asc_node": 185.8764,
        "meta_arg_of_pericenter": 266.7915,
        "meta_mean_anomaly": 74.0152,
        "meta_ephemeris_type": 0,
        "meta_classification_type": "U",
        "meta_norad_cat_id": 66581,
        "meta_element_set_no": 999,
        "meta_rev_at_epoch": 286,
        "meta_bstar": -0.010843,
        "meta_mean_motion_dot": -0.01765603,
        "meta_mean_motion_ddot": 0,
        "tle_line1": "1 66581U 25268AA  25335.83335647 -.01765603  00000+0 -10843-1 0  9992",
        "tle_line2": "2 66581  42.9970 185.8764 0001766 266.7915  74.0152 15.79184662  2868"
      },
      "geometry": {
        "type": "Point",
        "coordinates": [
          -62.923030125142795,
          40.395466319376105
        ]
      }
    },
    {
      "type": "Feature",
      "properties": {
        "norad_id": 66582,
        "name": "STARLINK-35746",
        "group": "last-30-days",
        "lat": 39.777498718968474,
        "lon": -60.28352185491978,
        "alt_km": 333.05976136891604,
        "timestamp": "2025-12-02T07:10:07.868300+00:00",
        "meta_object_name": "STARLINK-35746",
        "meta_object_id": "2025-268AB",
        "meta_epoch": "2025-12-01T20:00:01.999008",
        "meta_mean_motion": 15.79137356,
        "meta_eccentricity": 0.0001851,
        "meta_inclination": 42.9968,
        "meta_ra_of_asc_node": 185.8707,
        "meta_arg_of_pericenter": 269.8194,
        "meta_mean_anomaly": 73.1975,
        "meta_ephemeris_type": 0,
        "meta_classification_type": "U",
        "meta_norad_cat_id": 66582,
        "meta_element_set_no": 999,
        "meta_rev_at_epoch": 291,
        "meta_bstar": -0.010999,
        "meta_mean_motion_dot": -0.01784564,
        "meta_mean_motion_ddot": 0,
        "tle_line1": "1 66582U 25268AB  25335.83335647 -.01784564  00000+0 -10999-1 0  9992",
        "tle_line2": "2 66582  42.9968 185.8707 0001851 269.8194  73.1975 15.79137356  2918"
      },
      "geometry": {
        "type": "Point",
        "coordinates": [
          -60.28352185491978,
          39.777498718968474
        ]
      }
    },
    {
      "type": "Feature",
      "properties": {
        "norad_id": 66583,
        "name": "STARLINK-35941",
        "group": "last-30-days",
        "lat": 39.12227036187261,
        "lon": -57.77190264524881,
        "alt_km": 333.1584201899532,
        "timestamp": "2025-12-02T07:10:07.868313+00:00",
        "meta_object_name": "STARLINK-35941",
        "meta_object_id": "2025-268AC",
        "meta_epoch": "2025-12-01T20:00:01.999008",
        "meta_mean_motion": 15.79111202,
        "meta_eccentricity": 0.0001667,
        "meta_inclination": 42.9967,
        "meta_ra_of_asc_node": 185.8652,
        "meta_arg_of_pericenter": 268.6314,
        "meta_mean_anomaly": 76.499,
        "meta_ephemeris_type": 0,
        "meta_classification_type": "U",
        "meta_norad_cat_id": 66583,
        "meta_element_set_no": 999,
        "meta_rev_at_epoch": 291,
        "meta_bstar": -0.011164,
        "meta_mean_motion_dot": -0.01805945,
        "meta_mean_motion_ddot": 0,
        "tle_line1": "1 66583U 25268AC  25335.83335647 -.01805945  00000+0 -11164-1 0  9995",
        "tle_line2": "2 66583  42.9967 185.8652 0001667 268.6314  76.4990 15.79111202  2918"
      },
      "geometry": {
        "type": "Point",
        "coordinates": [
          -57.77190264524881,
          39.12227036187261
        ]
      }
    },
    {
      "type": "Feature",
      "properties": {
        "norad_id": 66584,
        "name": "STARLINK-35939",
        "group": "last-30-days",
        "lat": 38.44550051994514,
        "lon": -55.411071040932434,
        "alt_km": 333.24829588101875,
        "timestamp": "2025-12-02T07:10:07.868323+00:00",
        "meta_object_name": "STARLINK-35939",
        "meta_object_id": "2025-268AD",
        "meta_epoch": "2025-12-01T20:00:01.999008",
        "meta_mean_motion": 15.79115301,
        "meta_eccentricity": 0.0001674,
        "meta_inclination": 42.9971,
        "meta_ra_of_asc_node": 185.8609,
        "meta_arg_of_pericenter": 263.6879,
        "meta_mean_anomaly": 83.4201,
        "meta_ephemeris_type": 0,
        "meta_classification_type": "U",
        "meta_norad_cat_id": 66584,
        "meta_element_set_no": 999,
        "meta_rev_at_epoch": 291,
        "meta_bstar": -0.01131,
        "meta_mean_motion_dot": -0.01826958,
        "meta_mean_motion_ddot": 0,
        "tle_line1": "1 66584U 25268AD  25335.83335647 -.01826958  00000+0 -11310-1 0  9996",
        "tle_line2": "2 66584  42.9971 185.8609 0001674 263.6879  83.4201 15.79115301  2912"
      },
      "geometry": {
        "type": "Point",
        "coordinates": [
          -55.411071040932434,
          38.44550051994514
        ]
      }
    },
    {
      "type": "Feature",
      "properties": {
        "norad_id": 66585,
        "name": "STARLINK-35963",
        "group": "last-30-days",
        "lat": 37.69398047451026,
        "lon": -53.012438967442904,
        "alt_km": 333.60131690682647,
        "timestamp": "2025-12-02T07:10:07.868333+00:00",
        "meta_object_name": "STARLINK-35963",
        "meta_object_id": "2025-268AE",
        "meta_epoch": "2025-12-01T20:00:01.999008",
        "meta_mean_motion": 15.79103437,
        "meta_eccentricity": 0.0001663,
        "meta_inclination": 42.9969,
        "meta_ra_of_asc_node": 185.8552,
        "meta_arg_of_pericenter": 272.2504,
        "meta_mean_anomaly": 76.9453,
        "meta_ephemeris_type": 0,
        "meta_classification_type": "U",
        "meta_norad_cat_id": 66585,
        "meta_element_set_no": 999,
        "meta_rev_at_epoch": 291,
        "meta_bstar": -0.01159,
        "meta_mean_motion_dot": -0.01865411,
        "meta_mean_motion_ddot": 0,
        "tle_line1": "1 66585U 25268AE  25335.83335647 -.01865411  00000+0 -11590-1 0  9994",
        "tle_line2": "2 66585  42.9969 185.8552 0001663 272.2504  76.9453 15.79103437  2919"
      },
      "geometry": {
        "type": "Point",
        "coordinates": [
          -53.012438967442904,
          37.69398047451026
        ]
      }
    },
    {
      "type": "Feature",
      "properties": {
        "norad_id": 66586,
        "name": "TJS-21",
        "group": "last-30-days",
        "lat": 47.09843440017735,
        "lon": -126.92831994029696,
        "alt_km": 30630.321352999894,
        "timestamp": "2025-12-02T07:10:07.868346+00:00",
        "meta_object_name": "TJS-21",
        "meta_object_id": "2025-269A",
        "meta_epoch": "2025-11-22T00:38:56.616288",
        "meta_mean_motion": 2.0099221,
        "meta_eccentricity": 0.75179873,
        "meta_inclination": 51.0366,
        "meta_ra_of_asc_node": 174.7096,
        "meta_arg_of_pericenter": 225.0489,
        "meta_mean_anomaly": 41.6572,
        "meta_ephemeris_type": 0,
        "meta_classification_type": "U",
        "meta_norad_cat_id": 66586,
        "meta_element_set_no": 999,
        "meta_rev_at_epoch": 2,
        "meta_bstar": 0.00053569978,
        "meta_mean_motion_dot": 3.197e-05,
        "meta_mean_motion_ddot": 0,
        "tle_line1": "1 66586U 25269A   25326.02704417  .00003197  00000+0  53570-3 0  9990",
        "tle_line2": "2 66586  51.0366 174.7096 7517987 225.0489  41.6572  2.00992210    24"
      },
      "geometry": {
        "type": "Point",
        "coordinates": [
          -126.92831994029696,
          47.09843440017735
        ]
      }
    }
  ]
}